HAWK-2A                 
1 47505U 21006CW  26068.67946547  .00008113  00000+0  25431-3 0  9990
2 47505  97.2459 115.6184 0006450 187.1463 172.9689 15.33304498284242
STARLINK-35623          
1 66138U 25237AA  26068.21139863  .00039562  00000+0  13412-2 0  9995
2 66138  53.1591  42.1028 0001058  90.3957 269.7165 15.30190460 22531
